NORAD_CAT_ID,OBJECT_NAME,OBJECT_TYPE,EPOCH,MEAN_MOTION,ECCENTRICITY,INCLINATION,RA_OF_ASC_NODE,ARG_OF_PERICENTER,MEAN_ANOMALY,BSTAR,MEAN_MOTION_DOT,MEAN_MOTION_DDOT,TLE_LINE0,TLE_LINE1,TLE_LINE2,SEMIMAJOR_AXIS,PERIOD,APOGEE,PERIGEE,DECAYED
54783.0,STARLINK-5439,PAYLOAD,2023-02-19 14:00:01,15.43086146,0.0001336,53.215,352.6285,83.8311,52.9202,-0.021515,-0.0088958,0.0,0 STARLINK-5439,1 54783U 22175AB  23050.58334491 -.00889580  00000-0 -21515-1 0  9996,2 54783  53.2150 352.6285 0001336  83.8311  52.9202 15.43086146  9741,6815.144,93.319,437.92,436.099,0.0
54783.0,STARLINK-5439,PAYLOAD,2023-02-20 06:00:00,15.41785034,0.0001513,53.2148,349.4796,83.6313,157.0696,-0.022076,-0.0087482,0.0,0 STARLINK-5439,1 54783U 22175AB  23051.25001157 -.00874820  00000-0 -22076-1 0  9995,2 54783  53.2148 349.4796 0001513  83.6313 157.0696 15.41785034  9852,6818.978,93.398,441.875,439.811,0.0
54783.0,STARLINK-5439,PAYLOAD,2023-02-20 14:00:01,15.4113313,0.0001291,53.2146,347.905,94.0534,197.4605,-0.022918,-0.00887447,0.0,0 STARLINK-5439,1 54783U 22175AB  23051.58334491 -.00887447  00000-0 -22918-1 0  9995,2 54783  53.2146 347.9050 0001291  94.0534 197.4605 15.41133130  1304,6820.901,93.438,443.646,441.885,0.0
54783.0,STARLINK-5439,PAYLOAD,2023-02-20 22:00:01,15.40522446,0.0001268,53.2145,346.3337,96.1866,245.3997,-0.025171,-0.00949388,0.0,0 STARLINK-5439,1 54783U 22175AB  23051.91668981 -.00949388  00000-0 -25171-1 0  9993,2 54783  53.2145 346.3337 0001268  96.1866 245.3997 15.40522446  9956,6822.703,93.475,445.433,443.703,0.0
54783.0,STARLINK-5439,PAYLOAD,2023-02-21 14:00:01,15.3917274,0.0001252,53.214,343.1952,93.0111,346.2289,-0.024081,-0.0087473,0.0,0 STARLINK-5439,1 54783U 22175AB  23052.58334491 -.00874730  00000-0 -24081-1 0  9990,2 54783  53.2140 343.1952 0001252  93.0111 346.2289 15.39172740 10055,6826.691,93.557,449.411,447.702,0.0
54783.0,STARLINK-5439,PAYLOAD,2023-02-22 00:00:00,15.38383994,0.0001434,53.2139,341.238,94.5283,134.1766,-0.026107,-0.0092005,0.0,0 STARLINK-5439,1 54783U 22175AB  23053.00001157 -.00920050  00000-0 -26107-1 0  9996,2 54783  53.2139 341.2380 0001434  94.5283 134.1766 15.38383994  1301,6829.025,93.605,451.869,449.91,0.0
54783.0,STARLINK-5439,PAYLOAD,2023-02-22 06:00:00,15.37879929,0.0001465,53.2137,340.0649,85.7463,88.0557,-0.025244,-0.00878549,0.0,0 STARLINK-5439,1 54783U 22175AB  23053.25001157 -.00878549  00000-0 -25244-1 0  9999,2 54783  53.2137 340.0649 0001465  85.7463  88.0557 15.37879929 10155,6830.517,93.635,453.382,451.381,0.0
54783.0,STARLINK-5439,PAYLOAD,2023-02-22 14:00:01,15.37220996,0.0001371,53.2138,338.4994,95.7627,124.1589,-0.025687,-0.008752,0.0,0 STARLINK-5439,1 54783U 22175AB  23053.58334491 -.00875200  00000-0 -25687-1 0  9997,2 54783  53.2138 338.4994 0001371  95.7627 124.1589 15.37220996  1307,6832.468,93.676,455.27,453.397,0.0
54783.0,STARLINK-5439,PAYLOAD,2023-02-22 22:00:00,15.36608479,0.0001357,53.2139,336.9378,91.9176,173.3197,-0.028299,-0.00939357,0.0,0 STARLINK-5439,1 54783U 22175AB  23053.91667824 -.00939357  00000-0 -28299-1 0  9999,2 54783  53.2139 336.9378 0001357  91.9176 173.3197 15.36608479 10269,6834.284,93.713,457.076,455.222,0.0
54783.0,STARLINK-5439,PAYLOAD,2023-02-23 14:00:01,15.35268159,0.0001246,53.2139,333.8174,88.4084,265.1549,-0.027356,-0.0087496,0.0,0 STARLINK-5439,1 54783U 22175AB  23054.58334491 -.00874960  00000-0 -27356-1 0  9995,2 54783  53.2139 333.8174 0001246  88.4084 265.1549 15.35268159  1307,6838.261,93.795,460.978,459.274,0.0
54783.0,STARLINK-5439,PAYLOAD,2023-02-23 22:00:00,15.34653897,0.0001293,53.2141,332.2606,83.2186,313.3153,-0.030162,-0.00939947,0.0,0 STARLINK-5439,1 54783U 22175AB  23054.91667824 -.00939947  00000-0 -30162-1 0  9997,2 54783  53.2141 332.2606 0001293  83.2186 313.3153 15.34653897 10416,6840.086,93.832,462.835,461.066,0.0
54783.0,STARLINK-5439,PAYLOAD,2023-02-24 14:00:01,15.3331594,0.0001391,53.2142,329.1492,83.4377,36.7261,-0.029136,-0.00875492,0.0,0 STARLINK-5439,1 54783U 22175AB  23055.58334491 -.00875492  00000-0 -29136-1 0  9995,2 54783  53.2142 329.1492 0001391  83.4377  36.7261 15.33315940 10518,6844.064,93.914,466.881,464.977,0.0
54783.0,STARLINK-5439,PAYLOAD,2023-02-24 22:00:00,15.32696421,0.0001481,53.2144,327.597,82.0021,78.7878,-0.031858,-0.00933412,0.0,0 STARLINK-5439,1 54783U 22175AB  23055.91667824 -.00933412  00000-0 -31858-1 0  9992,2 54783  53.2144 327.5970 0001481  82.0021  78.7878 15.32696421  1306,6845.908,93.952,468.787,466.759,0.0
54783.0,STARLINK-5439,PAYLOAD,2023-02-25 06:00:00,15.32036593,0.0001544,53.2142,326.0466,80.538,120.1025,-0.031376,-0.0090301,0.0,0 STARLINK-5439,1 54783U 22175AB  23056.25001157 -.00903010  00000-0 -31376-1 0  9997,2 54783  53.2142 326.0466 0001544  80.5380 120.1025 15.32036593 10617,6847.874,93.993,470.796,468.682,0.0
54783.0,STARLINK-5439,PAYLOAD,2023-02-25 14:00:01,15.31359879,0.0001467,53.2144,324.4946,96.1625,143.562,-0.030746,-0.00869095,0.0,0 STARLINK-5439,1 54783U 22175AB  23056.58334491 -.00869095  00000-0 -30746-1 0  9997,2 54783  53.2144 324.4946 0001467  96.1625 143.5620 15.31359879  1303,6849.891,94.034,472.761,470.751,0.0
54783.0,STARLINK-5439,PAYLOAD,2023-02-25 22:00:00,15.30742644,0.0001444,53.2145,322.9474,96.5392,181.464,-0.033779,-0.00930909,0.0,0 STARLINK-5439,1 54783U 22175AB  23056.91667824 -.00930909  00000-0 -33779-1 0  9995,2 54783  53.2145 322.9474 0001444  96.5392 181.4640 15.30742644 10727,6851.732,94.072,474.587,472.608,0.0
54783.0,STARLINK-5439,PAYLOAD,2023-02-26 14:00:01,15.29407223,0.000127,53.2145,319.8539,99.0015,253.2436,-0.032685,-0.00869273,0.0,0 STARLINK-5439,1 54783U 22175AB  23057.58334491 -.00869273  00000-0 -32685-1 0  9990,2 54783  53.2145 319.8539 0001270  99.0015 253.2436 15.29407223  1305,6855.72,94.154,478.456,476.715,0.0
54783.0,STARLINK-5439,PAYLOAD,2023-02-27 00:00:00,15.28611226,0.000146,53.2144,317.9262,84.9164,42.1273,-0.034968,-0.00904302,0.0,0 STARLINK-5439,1 54783U 22175AB  23058.00001157 -.00904302  00000-0 -34968-1 0  9997,2 54783  53.2144 317.9262 0001460  84.9164  42.1273 15.28611226  1308,6858.1,94.203,480.966,478.964,0.0
54783.0,STARLINK-5439,PAYLOAD,2023-02-27 06:00:00,15.28033088,0.0001593,53.2144,316.7694,88.2868,335.1033,-0.030423,-0.00782195,0.0,0 STARLINK-5439,1 54783U 22175AB  23058.25001157 -.00782195  00000-0 -30423-1 0  9990,2 54783  53.2144 316.7694 0001593  88.2868 335.1033 15.28033088 10920,6859.83,94.239,482.787,480.602,0.0
54783.0,STARLINK-5439,PAYLOAD,2023-02-27 14:00:01,15.27463565,0.0001256,53.2145,315.227,95.2929,2.4275,-0.035322,-0.00883553,0.0,0 STARLINK-5439,1 54783U 22175AB  23058.58334491 -.00883553  00000-0 -35322-1 0  9999,2 54783  53.2145 315.2270 0001256  95.2929   2.4275 15.27463565 10970,6861.535,94.274,484.262,482.538,0.0
54783.0,STARLINK-5439,PAYLOAD,2023-02-27 22:00:01,15.26834514,0.0001397,53.2145,313.6892,84.4798,46.8935,-0.037947,-0.00939,0.0,0 STARLINK-5439,1 54783U 22175AB  23058.91668981 -.00939000  00000-0 -37947-1 0  9994,2 54783  53.2145 313.6892 0001397  84.4798  46.8935 15.26834514  1309,6863.419,94.313,486.243,484.325,0.0
54783.0,STARLINK-5439,PAYLOAD,2023-02-28 06:00:00,15.26197706,0.0001461,53.2142,312.152,79.6301,84.4852,-0.039255,-0.00951721,0.0,0 STARLINK-5439,1 54783U 22175AB  23059.25001157 -.00951721  00000-0 -39255-1 0  9996,2 54783  53.2142 312.1520 0001461  79.6301  84.4852 15.26197706 11072,6865.328,94.352,488.196,486.19,0.0
54783.0,STARLINK-5439,PAYLOAD,2023-02-28 14:00:01,15.25511346,0.0001409,53.2142,310.6141,91.6157,104.5435,-0.037479,-0.00883434,0.0,0 STARLINK-5439,1 54783U 22175AB  23059.58334491 -.00883434  00000-0 -37479-1 0  9993,2 54783  53.2142 310.6141 0001409  91.6157 104.5435 15.25511346  1304,6867.387,94.395,490.22,488.285,0.0
54783.0,STARLINK-5439,PAYLOAD,2023-02-28 22:00:00,15.24871476,0.0001494,53.2142,309.0812,86.4083,140.9981,-0.039645,-0.00925404,0.0,0 STARLINK-5439,1 54783U 22175AB  23059.91667824 -.00925404  00000-0 -39645-1 0  9990,2 54783  53.2142 309.0812 0001494  86.4083 140.9981 15.24871476  1307,6869.308,94.434,492.2,490.147,0.0
54783.0,STARLINK-5439,PAYLOAD,2023-03-01 06:00:00,15.24249412,0.000141,53.2139,307.5483,84.774,173.0851,-0.042066,-0.00960842,0.0,0 STARLINK-5439,1 54783U 22175AB  23060.25001157 -.00960842  00000-0 -42066-1 0  9996,2 54783  53.2139 307.5483 0001410  84.7740 173.0851 15.24249412 11234,6871.177,94.473,494.011,492.073,0.0
54783.0,STARLINK-5439,PAYLOAD,2023-03-01 22:00:00,15.22918289,0.0001379,53.2138,304.4869,86.7009,229.7564,-0.041926,-0.00923173,0.0,0 STARLINK-5439,1 54783U 22175AB  23060.91667824 -.00923173  00000-0 -41926-1 0  9998,2 54783  53.2138 304.4869 0001379  86.7009 229.7564 15.22918289 11335,6875.181,94.555,497.994,496.097,0.0
54783.0,STARLINK-5439,PAYLOAD,2023-03-02 00:00:00,15.22746667,0.000139,53.2139,304.1049,78.9686,334.5924,-0.041134,-0.00902671,0.0,0 STARLINK-5439,1 54783U 22175AB  23061.00001157 -.00902671  00000-0 -41134-1 0  9991,2 54783  53.2139 304.1049 0001390  78.9686 334.5924 15.22746667  1300,6875.697,94.566,498.518,496.606,0.0
54783.0,STARLINK-5439,PAYLOAD,2023-03-02 20:00:01,15.21139538,0.0001378,53.2135,300.2871,88.9703,212.9298,-0.045093,-0.00940544,0.0,0 STARLINK-5439,1 54783U 22175AB  23061.83334491 -.00940544  00000-0 -45093-1 0  9991,2 54783  53.2135 300.2871 0001378  88.9703 212.9298 15.21139538 11477,6880.539,94.666,503.352,501.456,0.0
54783.0,STARLINK-5439,PAYLOAD,2023-03-03 14:00:01,15.19657461,0.0001343,53.213,296.8585,86.6454,2.5852,-0.044997,-0.00901543,0.0,0 STARLINK-5439,1 54783U 22175AB  23062.58334491 -.00901543  00000-0 -44997-1 0  9992,2 54783  53.2130 296.8585 0001343  86.6454   2.5852 15.19657461  1301,6885.012,94.758,507.802,505.952,0.0
54783.0,STARLINK-5439,PAYLOAD,2023-03-03 22:00:00,15.19009626,0.000149,53.2128,295.3395,78.974,34.4654,-0.046671,-0.00916443,0.0,0 STARLINK-5439,1 54783U 22175AB  23062.91667824 -.00916443  00000-0 -46671-1 0  9994,2 54783  53.2128 295.3395 0001490  78.9740  34.4654 15.19009626 11631,6886.969,94.799,509.861,507.808,0.0
